IRIDIUM 155             
1 43573U 18061E   24155.51822056  .00000226  00000+0  73750-4 0  9999
2 43573  86.3980   7.4737 0001896  91.4463 268.6949 14.34219489306768
IRIDIUM 154             
1 43574U 18061F   24155.84804003 -.00000131  00000+0 -53952-4 0  9997
2 43574  86.3978   7.4326 0002217  82.3808 277.7640 14.34215753306860
IRIDIUM 163             
1 43575U 18061G   24155.13132523  .00000033  00000+0  45483-5 0  9991
2 43575  86.3983   7.6712 0002142  89.3175 270.8267 14.34215311306734
IRIDIUM 156             
1 43576U 18061H   24155.59433341  .00000100  00000+0  28603-4 0  9993
2 43576  86.3982   7.4839 0002138  91.2278 268.9163 14.34218230306795
IRIDIUM 164             
1 43577U 18061J   24155.50553824  .00000031  00000+0  39696-5 0  9992
2 43577  86.3985   7.5505 0002458  89.8568 270.2909 14.34217624306824
IRIDIUM 159             
1 43578U 18061K   24155.82266758 -.00000120  00000+0 -49924-4 0  9990
2 43578  86.3977   7.3688 0002317  83.6893 276.4567 14.34217813306832
IRIDIUM 180             
1 43922U 19002A   24155.47332055  .00000103  00000+0  29568-4 0  9995
2 43922  86.3946 304.3972 0002192  88.0111 272.1336 14.34217302282394
IRIDIUM 176             
1 43923U 19002B   24155.66027448  .00001694  00000+0  26468-3 0  9995
2 43923  86.6074 304.3417 0002336  87.2711 272.8774 14.72260261289856
IRIDIUM 168             
1 43924U 19002C   24155.46697888  .00000309  00000+0  10334-3 0  9992
2 43924  86.3952 304.4569 0002057  88.4248 271.7183 14.34216761282372
IRIDIUM 173             
1 43925U 19002D   24155.66359820  .00000173  00000+0  54861-4 0  9999
2 43925  86.3947 304.2935 0002265  90.0143 270.1312 14.34217578282392
IRIDIUM 169             
1 43926U 19002E   24155.49245054  .00000197  00000+0  57755-4 0  9995
2 43926  86.4216 335.9911 0000346  21.1525 338.9687 14.38588590283304
IRIDIUM 172             
1 43927U 19002F   24155.51771849  .00000007  00000+0 -45063-5 0  9996
2 43927  86.3944 304.3605 0002189  92.4660 267.6786 14.34217803282376
IRIDIUM 175             
1 43928U 19002G   24155.58657472  .00001712  00000+0  26756-3 0  9998
2 43928  86.1496 278.2754 0001885  93.5648 266.5785 14.72255220289833
IRIDIUM 171             
1 43929U 19002H   24155.49869149 -.00000004  00000+0 -86716-5 0  9994
2 43929  86.3954 304.5918 0002400  97.7972 262.3497 14.34218501282364
IRIDIUM 170             
1 43930U 19002J   24155.46252277  .00001600  00000+0  24982-3 0  9997
2 43930  86.6075 304.4292 0002271  86.4826 273.6651 14.72258532289832
IRIDIUM 167             
1 43931U 19002K   24155.49234696  .00000479  00000+0  16388-3 0  9990
2 43931  86.3952 304.3877 0001883  84.5877 275.5534 14.34217260282368
IRIDIUM 181             
1 56726U 23068S   24155.52108333  .00000588  00000+0  16797-3 0  9990
2 56726  86.8642 357.4439 0002152  93.5513 266.5934 14.43588703 55168
IRIDIUM 177             
1 56727U 23068T   24155.50209755  .00002240  00000+0  29122-3 0  9992
2 56727  86.1958 321.8611 0002438  96.1202 264.0296 14.80234740 56356
IRIDIUM 174             
1 56728U 23068U   24155.49667059  .00002241  00000+0  29140-3 0  9997
2 56728  86.1964 321.9663 0001972  90.3481 269.7966 14.80233393 56358
IRIDIUM 178             
1 56729U 23068V   24155.49132190  .00000776  00000+0  98704-4 0  9995
2 56729  86.5772 338.7851 0002025  81.4188 278.7263 14.80210173 56351
IRIDIUM 179             
1 56730U 23068W   24155.48562745  .00000717  00000+0  90927-4 0  9993
2 56730  86.6770 342.7476 0002022  89.3012 270.8441 14.80203783 56350
